{"type": "FeatureCollection", "features": [ {"type": "Feature", "properties": {"norad_id": 34376, "name": "IRIDIUM 33 DEB", "group": "iridium-33-debris", "lat": 84.89198448197435, "lon": 133.5124198525257, "alt_km": 658.4064705849833, "timestamp": "2025-12-27T11:23:20.286335+00:00", "meta": {"OBJECT_NAME": "IRIDIUM 33 DEB", "OBJECT_ID": "1997-051FU", "EPOCH": "2025-12-26T23:28:16.470624", "MEAN_MOTION": 14.62769588, "ECCENTRICITY": 0.002868, "INCLINATION": 86.2986, "RA_OF_ASC_NODE": 0.1373, "ARG_OF_PERICENTER": 120.2874, "MEAN_ANOMALY": 240.1181, "EPHEMERIS_TYPE": 0, "CLASSIFICATION_TYPE": "U", "NORAD_CAT_ID": 34376, "ELEMENT_SET_NO": 999, "REV_AT_EPOCH": 88215, "BSTAR": 0.0018717, "MEAN_MOTION_DOT": 9.625e-05, "MEAN_MOTION_DDOT": 0}, "tle": {"line1": "1 34376U 97051FU  25360.97796841  .00009625  00000+0  18717-2 0  9999", "line2": "2 34376  86.2986   0.1373 0028680 120.2874 240.1181 14.62769588882153"}}, "geometry": {"type": "Point", "coordinates": [133.5124198525257, 84.89198448197435]}}, {"type": "Feature", "properties": {"norad_id": 34486, "name": "IRIDIUM 33 DEB", "group": "iridium-33-debris", "lat": -77.35530175689685, "lon": -11.108542412626038, "alt_km": 593.3708643767177, "timestamp": "2025-12-27T11:23:20.286346+00:00", "meta": {"OBJECT_NAME": "IRIDIUM 33 DEB", "OBJECT_ID": "1997-051GB", "EPOCH": "2025-12-26T00:39:56.499264", "MEAN_MOTION": 14.96400313, "ECCENTRICITY": 0.00139183, "INCLINATION": 86.3935, "RA_OF_ASC_NODE": 5.8877, "ARG_OF_PERICENTER": 74.4824, "MEAN_ANOMALY": 338.8012, "EPHEMERIS_TYPE": 0, "CLASSIFICATION_TYPE": "U", "NORAD_CAT_ID": 34486, "ELEMENT_SET_NO": 999, "REV_AT_EPOCH": 89185, "BSTAR": 0.0021412617, "MEAN_MOTION_DOT": 0.00024383, "MEAN_MOTION_DDOT": 0}, "tle": {"line1": "1 34486U 97051GB  25360.02773726  .00024383  00000+0  21413-2 0  9999", "line2": "2 34486  86.3935   5.8877 0013918  74.4824 338.8012 14.96400313891854"}}, "geometry": {"type": "Point", "coordinates": [-11.108542412626038, -77.35530175689685]}}, {"type": "Feature", "properties": {"norad_id": 34487, "name": "IRIDIUM 33 DEB", "group": "iridium-33-debris", "lat": 15.324858116543936, "lon": 7.036992386144383, "alt_km": 739.3157397479417, "timestamp": "2025-12-27T11:23:20.286357+00:00", "meta": {"OBJECT_NAME": "IRIDIUM 33 DEB", "OBJECT_ID": "1997-051GC", "EPOCH": "2025-12-26T00:37:21.163296", "MEAN_MOTION": 14.43232747, "ECCENTRICITY": 0.00332617, "INCLINATION": 86.3429, "RA_OF_ASC_NODE": 6.6563, "ARG_OF_PERICENTER": 87.1121, "MEAN_ANOMALY": 327.0907, "EPHEMERIS_TYPE": 0, "CLASSIFICATION_TYPE": "U", "NORAD_CAT_ID": 34487, "ELEMENT_SET_NO": 999, "REV_AT_EPOCH": 88440, "BSTAR": 0.00018559814, "MEAN_MOTION_DOT": 6.49e-06, "MEAN_MOTION_DDOT": 0}, "tle": {"line1": "1 34487U 97051GC  25360.02593939  .00000649  00000+0  18560-3 0  9995", "line2": "2 34487  86.3429   6.6563 0033261  87.1121 327.0907 14.43232747884400"}}, "geometry": {"type": "Point", "coordinates": [7.036992386144383, 15.324858116543936]}}, {"type": "Feature", "properties": {"norad_id": 34488, "name": "IRIDIUM 33 DEB", "group": "iridium-33-debris", "lat": -33.39516953362952, "lon": -63.9326408469784, "alt_km": 469.3482548181364, "timestamp": "2025-12-27T11:23:20.286367+00:00", "meta": {"OBJECT_NAME": "IRIDIUM 33 DEB", "OBJECT_ID": "1997-051GD", "EPOCH": "2025-12-27T02:08:12.094368", "MEAN_MOTION": 15.33259084, "ECCENTRICITY": 0.0008085, "INCLINATION": 86.3256, "RA_OF_ASC_NODE": 298.6875, "ARG_OF_PERICENTER": 29.5801, "MEAN_ANOMALY": 330.5905, "EPHEMERIS_TYPE": 0, "CLASSIFICATION_TYPE": "U", "NORAD_CAT_ID": 34488, "ELEMENT_SET_NO": 999, "REV_AT_EPOCH": 89459, "BSTAR": 0.0056271, "MEAN_MOTION_DOT": 0.00185034, "MEAN_MOTION_DDOT": 0}, "tle": {"line1": "1 34488U 97051GD  25361.08902887  .00185034  00000+0  56271-2 0  9991", "line2": "2 34488  86.3256 298.6875 0008085  29.5801 330.5905 15.33259084894590"}}, "geometry": {"type": "Point", "coordinates": [-63.9326408469784, -33.39516953362952]}}, {"type": "Feature", "properties": {"norad_id": 34492, "name": "IRIDIUM 33 DEB", "group": "iridium-33-debris", "lat": -85.78981772872281, "lon": -154.41742317385163, "alt_km": 780.6397195490708, "timestamp": "2025-12-27T11:23:20.286378+00:00", "meta": {"OBJECT_NAME": "IRIDIUM 33 DEB", "OBJECT_ID": "1997-051GH", "EPOCH": "2025-12-26T22:37:45.027264", "MEAN_MOTION": 14.25970282, "ECCENTRICITY": 0.0188844, "INCLINATION": 86.473, "RA_OF_ASC_NODE": 328.887, "ARG_OF_PERICENTER": 192.0084, "MEAN_ANOMALY": 226.0259, "EPHEMERIS_TYPE": 0, "CLASSIFICATION_TYPE": "U", "NORAD_CAT_ID": 34492, "ELEMENT_SET_NO": 999, "REV_AT_EPOCH": 85261, "BSTAR": 0.0032813, "MEAN_MOTION_DOT": 9.462e-05, "MEAN_MOTION_DDOT": 0}, "tle": {"line1": "1 34492U 97051GH  25360.94288226  .00009462  00000+0  32813-2 0  9990", "line2": "2 34492  86.4730 328.8870 0188844 192.0084 226.0259 14.25970282852613"}}, "geometry": {"type": "Point", "coordinates": [-154.41742317385163, -85.78981772872281]}}, {"type": "Feature", "properties": {"norad_id": 34497, "name": "IRIDIUM 33 DEB", "group": "iridium-33-debris", "lat": -48.86019342499694, "lon": -129.61875849237967, "alt_km": 780.9330549864817, "timestamp": "2025-12-27T11:23:20.286388+00:00", "meta": {"OBJECT_NAME": "IRIDIUM 33 DEB", "OBJECT_ID": "1997-051GN", "EPOCH": "2025-12-22T21:33:03.136608", "MEAN_MOTION": 14.27482363, "ECCENTRICITY": 0.00780484, "INCLINATION": 86.2769, "RA_OF_ASC_NODE": 48.0617, "ARG_OF_PERICENTER": 306.2683, "MEAN_ANOMALY": 179.2919, "EPHEMERIS_TYPE": 0, "CLASSIFICATION_TYPE": "U", "NORAD_CAT_ID": 34497, "ELEMENT_SET_NO": 999, "REV_AT_EPOCH": 87028, "BSTAR": 0.00056228088, "MEAN_MOTION_DOT": 1.443e-05, "MEAN_MOTION_DDOT": 0}, "tle": {"line1": "1 34497U 97051GN  25356.89795297  .00001443  00000+0  56228-3 0  9993", "line2": "2 34497  86.2769  48.0617 0078048 306.2683 179.2919 14.27482363870281"}}, "geometry": {"type": "Point", "coordinates": [-129.61875849237967, -48.86019342499694]}}, {"type": "Feature", "properties": {"norad_id": 34508, "name": "IRIDIUM 33 DEB", "group": "iridium-33-debris", "lat": -71.06664651914168, "lon": -72.9384952756868, "alt_km": 798.2856839350934, "timestamp": "2025-12-27T11:23:20.286398+00:00", "meta": {"OBJECT_NAME": "IRIDIUM 33 DEB", "OBJECT_ID": "1997-051GZ", "EPOCH": "2025-12-26T19:12:17.155584", "MEAN_MOTION": 14.38532192, "ECCENTRICITY": 0.00667146, "INCLINATION": 86.3698, "RA_OF_ASC_NODE": 96.6821, "ARG_OF_PERICENTER": 127.9184, "MEAN_ANOMALY": 232.8072, "EPHEMERIS_TYPE": 0, "CLASSIFICATION_TYPE": "U", "NORAD_CAT_ID": 34508, "ELEMENT_SET_NO": 999, "REV_AT_EPOCH": 87511, "BSTAR": 0.0012424793, "MEAN_MOTION_DOT": 3.917e-05, "MEAN_MOTION_DDOT": 0}, "tle": {"line1": "1 34508U 97051GZ  25360.80019856  .00003917  00000+0  12425-2 0  9990", "line2": "2 34508  86.3698  96.6821 0066714 127.9184 232.8072 14.38532192875114"}}, "geometry": {"type": "Point", "coordinates": [-72.9384952756868, -71.06664651914168]}}, {"type": "Feature", "properties": {"norad_id": 34521, "name": "IRIDIUM 33 DEB", "group": "iridium-33-debris", "lat": -50.19613943115887, "lon": 19.700975186489234, "alt_km": 690.9881337202078, "timestamp": "2025-12-27T11:23:20.286409+00:00", "meta": {"OBJECT_NAME": "IRIDIUM 33 DEB", "OBJECT_ID": "1997-051HN", "EPOCH": "2025-12-27T01:46:22.234080", "MEAN_MOTION": 14.63488583, "ECCENTRICITY": 0.0003378, "INCLINATION": 86.3791, "RA_OF_ASC_NODE": 24.2356, "ARG_OF_PERICENTER": 161.084, "MEAN_ANOMALY": 199.0498, "EPHEMERIS_TYPE": 0, "CLASSIFICATION_TYPE": "U", "NORAD_CAT_ID": 34521, "ELEMENT_SET_NO": 999, "REV_AT_EPOCH": 88682, "BSTAR": 0.0010644, "MEAN_MOTION_DOT": 5.535e-05, "MEAN_MOTION_DDOT": 0}, "tle": {"line1": "1 34521U 97051HN  25361.07386845  .00005535  00000+0  10644-2 0  9999", "line2": "2 34521  86.3791  24.2356 0003378 161.0840 199.0498 14.63488583886826"}}, "geometry": {"type": "Point", "coordinates": [19.700975186489234, -50.19613943115887]}}, {"type": "Feature", "properties": {"norad_id": 34525, "name": "IRIDIUM 33 DEB", "group": "iridium-33-debris", "lat": 56.95242083369365, "lon": -145.04359305844923, "alt_km": 741.3892381498863, "timestamp": "2025-12-27T11:23:20.286419+00:00", "meta": {"OBJECT_NAME": "IRIDIUM 33 DEB", "OBJECT_ID": "1997-051HS", "EPOCH": "2025-12-27T02:46:13.062144", "MEAN_MOTION": 14.42939848, "ECCENTRICITY": 0.000612, "INCLINATION": 86.3716, "RA_OF_ASC_NODE": 40.7068, "ARG_OF_PERICENTER": 61.7573, "MEAN_ANOMALY": 356.7447, "EPHEMERIS_TYPE": 0, "CLASSIFICATION_TYPE": "U", "NORAD_CAT_ID": 34525, "ELEMENT_SET_NO": 999, "REV_AT_EPOCH": 88295, "BSTAR": 0.00039403, "MEAN_MOTION_DOT": 1.337e-05, "MEAN_MOTION_DDOT": 0}, "tle": {"line1": "1 34525U 97051HS  25361.11542896  .00001337  00000+0  39403-3 0  9999", "line2": "2 34525  86.3716  40.7068 0006120  61.7573 356.7447 14.42939848882955"}}, "geometry": {"type": "Point", "coordinates": [-145.04359305844923, 56.95242083369365]}}, {"type": "Feature", "properties": {"norad_id": 34529, "name": "IRIDIUM 33 DEB", "group": "iridium-33-debris", "lat": -75.31140701739083, "lon": -136.82706012646068, "alt_km": 766.1034608213431, "timestamp": "2025-12-27T11:23:20.286429+00:00", "meta": {"OBJECT_NAME": "IRIDIUM 33 DEB", "OBJECT_ID": "1997-051HW", "EPOCH": "2025-12-27T01:52:15.197088", "MEAN_MOTION": 14.40627936, "ECCENTRICITY": 0.0006334, "INCLINATION": 86.3627, "RA_OF_ASC_NODE": 29.2983, "ARG_OF_PERICENTER": 136.9465, "MEAN_ANOMALY": 223.2231, "EPHEMERIS_TYPE": 0, "CLASSIFICATION_TYPE": "U", "NORAD_CAT_ID": 34529, "ELEMENT_SET_NO": 999, "REV_AT_EPOCH": 88348, "BSTAR": 0.00015042, "MEAN_MOTION_DOT": 5e-06, "MEAN_MOTION_DDOT": 0}, "tle": {"line1": "1 34529U 97051HW  25361.07795367  .00000500  00000+0  15042-3 0  9995", "line2": "2 34529  86.3627  29.2983 0006334 136.9465 223.2231 14.40627936883488"}}, "geometry": {"type": "Point", "coordinates": [-136.82706012646068, -75.31140701739083]}}]}